[{"OBJECT_NAME":"STARLINK-3265","OBJECT_ID":"2021-125AA","EPOCH":"2026-03-09T19:26:59.229600","MEAN_MOTION":15.08837854,"ECCENTRICITY":0.00012903,"INCLINATION":53.2171,"RA_OF_ASC_NODE":248.5905,"ARG_OF_PERICENTER":92.569,"MEAN_ANOMALY":267.545,"EPHEMERIS_TYPE":0,"CLASSIFICATION_TYPE":"U","NORAD_CAT_ID":50180,"ELEMENT_SET_NO":999,"REV_AT_EPOCH":23666,"BSTAR":3.2751093e-5,"MEAN_MOTION_DOT":2.33e-6,"MEAN_MOTION_DDOT":0},{"OBJECT_NAME":"FENGYUN 1C DEB","OBJECT_ID":"1999-025BQF","EPOCH":"2026-03-08T19:58:36.101856","MEAN_MOTION":15.15826086,"ECCENTRICITY":0.00798835,"INCLINATION":98.9812,"RA_OF_ASC_NODE":89.4872,"ARG_OF_PERICENTER":83.7388,"MEAN_ANOMALY":277.2932,"EPHEMERIS_TYPE":0,"CLASSIFICATION_TYPE":"U","NORAD_CAT_ID":31327,"ELEMENT_SET_NO":999,"REV_AT_EPOCH":1401,"BSTAR":0.0018254058,"MEAN_MOTION_DOT":0.00037915,"MEAN_MOTION_DDOT":0}]
